[Satellite]
VERSION=1.1
NAME=SL-16 R/B
NICKNAME=SL-16 R/B
TLE1=1 25400U 98043G   19317.81708190 -.00000025  00000-0  78175-5 0  9991
TLE2=2 25400  98.5853 252.9817 0008879 244.3455 115.6808 14.25445617110385
STATUS=0
